GSAT-10                 
1 38779U 12051B   26026.63043174 -.00000152  00000+0  00000+0 0  9994
2 38779   0.0667 264.1694 0001966 193.3565 338.2943  1.00269250 48673
VRSS-1                  
1 38782U 12052A   26026.63188483  .00001927  00000+0  26263-3 0  9995
2 38782  97.6013  10.3671 0017451 344.8035  15.2651 14.79669403718677
NAVSTAR 67 (USA 239)    
1 38833U 12053A   26025.72547708  .00000042  00000+0  00000+0 0  9995
2 38833  53.5631 149.4373 0176524  64.5000 297.2956  2.00565275 96581
GSAT0103 (GALILEO-FM3)  
1 38857U 12055A   26022.41561547  .00000006  00000+0  00000+0 0  9993
2 38857  55.7142 105.5485 0004117 276.5192  83.4839  1.70473297 82522
SJ-9A                   
1 38860U 12056A   26026.62429942  .00002287  00000+0  27216-3 0  9992
2 38860  97.6539   3.8759 0025937   7.0320 353.1254 14.85082575678577
SJ-9B                   
1 38861U 12056B   26026.51027029  .00004589  00000+0  47288-3 0  9999
2 38861  97.5870  15.9460 0014548 332.4985  27.5462 14.90636121718617
INTELSAT 23 (IS-23)     
1 38867U 12057A   26025.98964906 -.00000271  00000+0  00000+0 0  9992
2 38867   0.0389 245.4663 0001774  50.1750 132.8910  1.00272009 48525
BEIDOU-2 G6             
1 38953U 12059A   26026.63043185 -.00000165  00000+0  00000+0 0  9992
2 38953   4.0606  75.0580 0009379 294.7313  67.0310  1.00268526 48490
LUCH-5B                 
1 38977U 12061A   26026.35347777 -.00000131  00000+0  00000+0 0  9997
2 38977  10.1749  51.2718 0005870 209.0082 336.3161  1.00270873 48185
YAMAL 300K              
1 38978U 12061B   26026.60697920  .00000083  00000+0  00000+0 0  9999
2 38978   0.0228  94.8721 0000544 206.4823 225.9989  1.00269923 48219
STAR ONE C3             
1 38991U 12062A   26026.12796984 -.00000236  00000+0  00000+0 0  9993
2 38991   0.0138  70.1672 0002213 240.1253 146.1935  1.00271832 48344
EUTELSAT 21B            
1 38992U 12062B   26026.57499903  .00000142  00000+0  00000+0 0  9999
2 38992   0.0686  18.3511 0002902 291.0533  45.0316  1.00273196 48402
ECHOSTAR 16             
1 39008U 12065A   26025.84529726 -.00000268  00000+0  00000+0 0  9997
2 39008   0.0180  71.5917 0002019 229.8905  66.4552  1.00269881 48205
YAOGAN-16 01A           
1 39011U 12066A   26026.07769025  .00000106  00000+0  19276-3 0  9995
2 39011  63.3559 296.8039 0423931  25.9537 336.2093 13.45496488647024
YAOGAN-16 01B           
1 39012U 12066B   26026.08209112  .00000116  00000+0  20273-3 0  9993
2 39012  63.3565 297.0075 0424092  25.7028 336.4422 13.45495500646983
YAOGAN-16 01C           
1 39013U 12066C   26026.60127465  .00000177  00000+0  26218-3 0  9994
2 39013  63.3570 295.1482 0424175  25.2810 336.8328 13.45487651647086
ZHONGXING-12            
1 39017U 12067A   26026.58808576 -.00000195  00000+0  00000+0 0  9993
2 39017   0.0230 108.6930 0003490 193.1358 123.2361  1.00272461 48081
PLEIADES 1B             
1 39019U 12068A   26026.62281391  .00000970  00000+0  21841-3 0  9991
2 39019  98.1726 103.5524 0001234 105.0633 255.0703 14.58565467700218
EUTELSAT 70B            
1 39020U 12069A   26026.58470574 -.00000031  00000+0  00000+0 0  9991
2 39020   0.0619   6.8674 0003227 272.4596 127.5079  1.00271547 48080
YAMAL 402               
1 39022U 12070A   26026.58158573  .00000097  00000+0  00000+0 0  9998
2 39022   0.9003  86.1848 0004251 219.3287  84.6114  1.00271685 47970
GOKTURK 2               
1 39030U 12073A   26026.61544572  .00001155  00000+0  17727-3 0  9996
2 39030  97.6890 231.0624 0002097  84.2222 275.9228 14.75370514703633
SKYNET 5D               
1 39034U 12075A   26026.58123906  .00000112  00000+0  00000+0 0  9996
2 39034   0.0702 357.4258 0004016 313.3788  77.0513  1.00268352 47739
MEXSAT 3                
1 39035U 12075B   26026.53512004 -.00000013  00000+0  00000+0 0  9994
2 39035   0.0140 111.0387 0001797 170.6660 281.9383  1.00268224  5631
COSMOS 2482 (RODNIK-S 4)
1 39057U 13001A   26026.61840080 -.00000005  00000+0 -10585-3 0  9990
2 39057  82.5017 308.4505 0027732 335.6426  24.3341 12.42990946591125
COSMOS 2483 (RODNIK-S 5)
1 39058U 13001B   26026.65099593  .00000211  00000+0  14305-2 0  9990
2 39058  82.5021 303.1344 0016588 325.3688  34.6311 12.44021467583999
COSMOS 2484 (RODNIK-S 6)
1 39059U 13001C   26026.63785449  .00000056  00000+0  33106-3 0  9999
2 39059  82.5053 309.9234 0026633 344.5595  15.4669 12.42934509590976
TDRS 11                 
1 39070U 13004A   26026.60758587  .00000091  00000+0  00000+0 0  9997
2 39070   3.3156  28.6428 0003125 341.7022 159.9932  1.00277726 45277
GLOBALSTAR M097         
1 39072U 13005A   26025.78936134 -.00000090  00000+0  79485-4 0  9992
2 39072  52.0068 316.8079 0000763  61.4802 298.6141 12.62268341598924
GLOBALSTAR M093         
1 39073U 13005B   26026.47581982 -.00000076  00000+0  15261-3 0  9992
2 39073  52.0125 308.0128 0001011  53.7647 306.3313 12.62272171598963
GLOBALSTAR M094         
1 39074U 13005C   26026.55502119 -.00000078  00000+0  14135-3 0  9998
2 39074  51.9933 222.0294 0001200  76.3283 283.7717 12.62266637600583
GLOBALSTAR M096         
1 39075U 13005D   26026.64722191 -.00000077  00000+0  15133-3 0  9991
2 39075  52.0068 270.4382 0001004  60.4278 299.6689 12.62262636599519
