OBJECT_NAME,OBJECT_ID,EPOCH,MEAN_MOTION,ECCENTRICITY,INCLINATION,RA_OF_ASC_NODE,ARG_OF_PERICENTER,MEAN_ANOMALY,EPHEMERIS_TYPE,CLASSIFICATION_TYPE,NORAD_CAT_ID,ELEMENT_SET_NO,REV_AT_EPOCH,BSTAR,MEAN_MOTION_DOT,MEAN_MOTION_DDOT
GSAT-10,2012-051B,2026-01-26T15:07:49.302336,1.00269250,.00019663,0.0667,264.1694,193.3565,338.2943,0,U,38779,999,4867,0,-.152E-5,0
VRSS-1,2012-052A,2026-01-26T15:09:54.849312,14.79669403,.00174515,97.6013,10.3671,344.8035,15.2651,0,U,38782,999,71867,.26262552E-3,.1927E-4,0
NAVSTAR 67 (USA 239),2012-053A,2026-01-25T17:24:41.219712,2.00565275,.01765244,53.5631,149.4373,64.5000,297.2956,0,U,38833,999,9658,0,.42E-6,0
GSAT0103 (GALILEO-FM3),2012-055A,2026-01-22T09:58:29.176608,1.70473297,.00041172,55.7142,105.5485,276.5192,83.4839,0,U,38857,999,8252,0,.6E-7,0
SJ-9A,2012-056A,2026-01-26T14:58:59.469888,14.85082575,.00259376,97.6539,3.8759,7.0320,353.1254,0,U,38860,999,67857,.27215735E-3,.2287E-4,0
SJ-9B,2012-056B,2026-01-26T12:14:47.353056,14.90636121,.00145482,97.5870,15.9460,332.4985,27.5462,0,U,38861,999,71861,.47287991E-3,.4589E-4,0
INTELSAT 23 (IS-23),2012-057A,2026-01-25T23:45:05.678784,1.00272009,.0001774,0.0389,245.4663,50.1750,132.8910,0,U,38867,999,4852,0,-.271E-5,0
BEIDOU-2 G6,2012-059A,2026-01-26T15:07:49.311840,1.00268526,.00093799,4.0606,75.0580,294.7313,67.0310,0,U,38953,999,4849,0,-.165E-5,0
LUCH-5B,2012-061A,2026-01-26T08:29:00.479328,1.00270873,.00058708,10.1749,51.2718,209.0082,336.3161,0,U,38977,999,4818,0,-.131E-5,0
YAMAL 300K,2012-061B,2026-01-26T14:34:03.002880,1.00269923,.00005443,0.0228,94.8721,206.4823,225.9989,0,U,38978,999,4821,0,.83E-6,0
STAR ONE C3,2012-062A,2026-01-26T03:04:16.594176,1.00271832,.00022135,0.0138,70.1672,240.1253,146.1935,0,U,38991,999,4834,0,-.236E-5,0
EUTELSAT 21B,2012-062B,2026-01-26T13:47:59.916192,1.00273196,.00029023,0.0686,18.3511,291.0533,45.0316,0,U,38992,999,4840,0,.142E-5,0
ECHOSTAR 16,2012-065A,2026-01-25T20:17:13.683264,1.00269881,.0002019,0.0180,71.5917,229.8905,66.4552,0,U,39008,999,4820,0,-.268E-5,0
YAOGAN-16 01A,2012-066A,2026-01-26T01:51:52.437600,13.45496488,.04239312,63.3559,296.8039,25.9537,336.2093,0,U,39011,999,64702,.19275947E-3,.106E-5,0
YAOGAN-16 01B,2012-066B,2026-01-26T01:58:12.672768,13.45495500,.0424092,63.3565,297.0075,25.7028,336.4422,0,U,39012,999,64698,.2027254E-3,.116E-5,0
YAOGAN-16 01C,2012-066C,2026-01-26T14:25:50.129760,13.45487651,.04241751,63.3570,295.1482,25.2810,336.8328,0,U,39013,999,64708,.26217586E-3,.177E-5,0
ZHONGXING-12,2012-067A,2026-01-26T14:06:50.609664,1.00272461,.00034901,0.0230,108.6930,193.1358,123.2361,0,U,39017,999,4808,0,-.195E-5,0
PLEIADES 1B,2012-068A,2026-01-26T14:56:51.121824,14.58565467,.00012349,98.1726,103.5524,105.0633,255.0703,0,U,39019,999,70021,.21840868E-3,.97E-5,0
EUTELSAT 70B,2012-069A,2026-01-26T14:01:58.575936,1.00271547,.00032271,0.0619,6.8674,272.4596,127.5079,0,U,39020,999,4808,0,-.31E-6,0
YAMAL 402,2012-070A,2026-01-26T13:57:29.007072,1.00271685,.00042517,0.9003,86.1848,219.3287,84.6114,0,U,39022,999,4797,0,.97E-6,0
GOKTURK 2,2012-073A,2026-01-26T14:46:14.510208,14.75370514,.00020978,97.6890,231.0624,84.2222,275.9228,0,U,39030,999,70363,.17727421E-3,.1155E-4,0
SKYNET 5D,2012-075A,2026-01-26T13:56:59.054784,1.00268352,.00040168,0.0702,357.4258,313.3788,77.0513,0,U,39034,999,4773,0,.112E-5,0
MEXSAT 3,2012-075B,2026-01-26T12:50:34.371456,1.00268224,.00017974,0.0140,111.0387,170.6660,281.9383,0,U,39035,999,563,0,-.13E-6,0
COSMOS 2482 (RODNIK-S 4),2013-001A,2026-01-26T14:50:29.829120,12.42990946,.0027732,82.5017,308.4505,335.6426,24.3341,0,U,39057,999,59112,-.1058547E-3,-.5E-7,0
COSMOS 2483 (RODNIK-S 5),2013-001B,2026-01-26T15:37:26.048352,12.44021467,.00165889,82.5021,303.1344,325.3688,34.6311,0,U,39058,999,58399,.14305202E-2,.211E-5,0
COSMOS 2484 (RODNIK-S 6),2013-001C,2026-01-26T15:18:30.627936,12.42934509,.00266333,82.5053,309.9234,344.5595,15.4669,0,U,39059,999,59097,.33106203E-3,.56E-6,0
TDRS 11,2013-004A,2026-01-26T14:34:55.419168,1.00277726,.00031257,3.3156,28.6428,341.7022,159.9932,0,U,39070,999,4527,0,.91E-6,0
GLOBALSTAR M097,2013-005A,2026-01-25T18:56:40.819776,12.62268341,.00007632,52.0068,316.8079,61.4802,298.6141,0,U,39072,999,59892,.79484598E-4,-.9E-6,0
GLOBALSTAR M093,2013-005B,2026-01-26T11:25:10.832448,12.62272171,.00010115,52.0125,308.0128,53.7647,306.3313,0,U,39073,999,59896,.15261092E-3,-.76E-6,0
GLOBALSTAR M094,2013-005C,2026-01-26T13:19:13.830816,12.62266637,.00012008,51.9933,222.0294,76.3283,283.7717,0,U,39074,999,60058,.14135304E-3,-.78E-6,0
GLOBALSTAR M096,2013-005D,2026-01-26T15:31:59.973024,12.62262636,.0001004,52.0068,270.4382,60.4278,299.6689,0,U,39075,999,59951,.15133463E-3,-.77E-6,0
